[{"OBJECT_NAME":"STARLINK-36155","OBJECT_ID":"2025-286P","EPOCH":"2026-03-09T22:41:26.860992","MEAN_MOTION":15.30215386,"ECCENTRICITY":0.00011913,"INCLINATION":53.1617,"RA_OF_ASC_NODE":357.4215,"ARG_OF_PERICENTER":117.9183,"MEAN_ANOMALY":242.1938,"EPHEMERIS_TYPE":0,"CLASSIFICATION_TYPE":"U","NORAD_CAT_ID":66938,"ELEMENT_SET_NO":999,"REV_AT_EPOCH":1545,"BSTAR":0.0011487825,"MEAN_MOTION_DOT":0.00033836,"MEAN_MOTION_DDOT":0},{"OBJECT_NAME":"COSMOS 2251 DEB","OBJECT_ID":"1993-036BTX","EPOCH":"2026-02-28T17:34:44.973408","MEAN_MOTION":15.25753352,"ECCENTRICITY":0.00216382,"INCLINATION":73.9681,"RA_OF_ASC_NODE":229.3494,"ARG_OF_PERICENTER":13.6287,"MEAN_ANOMALY":346.5492,"EPHEMERIS_TYPE":0,"CLASSIFICATION_TYPE":"U","NORAD_CAT_ID":38487,"ELEMENT_SET_NO":999,"REV_AT_EPOCH":67986,"BSTAR":0.0024802785,"MEAN_MOTION_DOT":0.00064261,"MEAN_MOTION_DDOT":0}]
